[
  {
    "name": "PLEIADES NEO 3",
    "line1": "1 48268U 21034A   25338.35444828 -.00000067  00000+0 -19248-5 0  9990",
    "line2": "2 48268  97.8946  50.9159 0001245  91.5378 268.5978 14.81673589248806",
    "catNr": 48268
  },
  {
    "name": "PLEIADES NEO 4",
    "line1": "1 49070U 21073E   25338.32067021 -.00000026  00000+0  32661-5 0  9996",
    "line2": "2 49070  97.8950  50.8785 0001281  98.0398 262.0960 14.81672732232511",
    "catNr": 49070
  }
]